start=new Date('2022-02-03T00:00:00.000Z').valueOf();
sats=[{"GP_ID":"195192731","MEAN_ELEMENT_THEORY":"SGP4","REV_AT_EPOCH":"5541","RA_OF_ASC_NODE":"251.6374","NORAD_CAT_ID":"47577","EPHEMERIS_TYPE":"0","SEMIMAJOR_AXIS":"6925.357","INCLINATION":"53.0531","OBJECT_TYPE":"PAYLOAD","TLE_LINE1":"1 47577U 21009AF  22033.86692351  .00001548  00000-0  12280-3 0  9996","DECAY_DATE":null,"FILE":"3290513","LAUNCH_DATE":"2021-02-04","ARG_OF_PERICENTER":"68.9174","CENTER_NAME":"EARTH","COUNTRY_CODE":"US","MEAN_MOTION_DDOT":"0.0000000000000","ECCENTRICITY":"0.00015860","MEAN_MOTION":"15.06397373","TLE_LINE2":"2 47577  53.0531 251.6374 0001586  68.9174 291.1985 15.06397373 55416","RCS_SIZE":"LARGE","CLASSIFICATION_TYPE":"U","PERIOD":"95.592","REF_FRAME":"TEME","APOAPSIS":"548.320","ELEMENT_SET_NO":"999","BSTAR":"0.00012280000000","MEAN_MOTION_DOT":"0.00001548","MEAN_ANOMALY":"291.1985","OBJECT_ID":"2021-009AF","OBJECT_NAME":"STARLINK-1979","TIME_SYSTEM":"UTC","EPOCH":"2022-02-02T20:48:22.191264","PERIAPSIS":"546.123","SITE":"AFETR"},{"OBJECT_TYPE":"PAYLOAD","INCLINATION":"53.0527","SEMIMAJOR_AXIS":"6925.382","TLE_LINE1":"1 47578U 21009AG  22033.72824573 -.00000464  00000-0 -12240-4 0  9990","DECAY_DATE":null,"FILE":"3290513","REV_AT_EPOCH":"5531","RA_OF_ASC_NODE":"257.2460","GP_ID":"195191979","MEAN_ELEMENT_THEORY":"SGP4","NORAD_CAT_ID":"47578","EPHEMERIS_TYPE":"0","PERIOD":"95.593","REF_FRAME":"TEME","APOAPSIS":"548.462","ELEMENT_SET_NO":"999","CLASSIFICATION_TYPE":"U","PERIAPSIS":"546.032","SITE":"AFETR","BSTAR":"-0.00001224000000","MEAN_MOTION_DOT":"-0.00000464","MEAN_ANOMALY":"290.2188","OBJECT_ID":"2021-009AG","OBJECT_NAME":"STARLINK-1980","TIME_SYSTEM":"UTC","EPOCH":"2022-02-02T17:28:40.431072","CENTER_NAME":"EARTH","LAUNCH_DATE":"2021-02-04","ARG_OF_PERICENTER":"69.8990","TLE_LINE2":"2 47578  53.0527 257.2460 0001754  69.8990 290.2188 15.06389123 55311","RCS_SIZE":"LARGE","COUNTRY_CODE":"US","MEAN_MOTION_DDOT":"0.0000000000000","ECCENTRICITY":"0.00017540","MEAN_MOTION":"15.06389123"},{"RCS_SIZE":"LARGE","TLE_LINE2":"2 47579  53.0537 246.7344 0001672  65.5237 294.5926 15.06396425 55470","MEAN_MOTION":"15.06396425","ECCENTRICITY":"0.00016720","MEAN_MOTION_DDOT":"0.0000000000000","COUNTRY_CODE":"US","CENTER_NAME":"EARTH","ARG_OF_PERICENTER":"65.5237","LAUNCH_DATE":"2021-02-04","SITE":"AFETR","PERIAPSIS":"546.067","EPOCH":"2022-02-02T20:14:31.871616","TIME_SYSTEM":"UTC","OBJECT_NAME":"STARLINK-1981","OBJECT_ID":"2021-009AH","MEAN_MOTION_DOT":"0.00000109","MEAN_ANOMALY":"294.5926","BSTAR":"0.00002622600000","ELEMENT_SET_NO":"999","APOAPSIS":"548.382","REF_FRAME":"TEME","PERIOD":"95.592","CLASSIFICATION_TYPE":"U","NORAD_CAT_ID":"47579","EPHEMERIS_TYPE":"0","RA_OF_ASC_NODE":"246.7344","REV_AT_EPOCH":"5547","MEAN_ELEMENT_THEORY":"SGP4","GP_ID":"195192229","FILE":"3290513","DECAY_DATE":null,"TLE_LINE1":"1 47579U 21009AH  22033.84342444  .00000109  00000-0  26226-4 0  9999","OBJECT_TYPE":"PAYLOAD","INCLINATION":"53.0537","SEMIMAJOR_AXIS":"6925.360"},{"DECAY_DATE":null,"TLE_LINE1":"1 47580U 21009AJ  22033.86461681  .00000172  00000-0  30423-4 0  9992","FILE":"3290513","SEMIMAJOR_AXIS":"6925.375","INCLINATION":"53.0557","OBJECT_TYPE":"PAYLOAD","NORAD_CAT_ID":"47580","EPHEMERIS_TYPE":"0","GP_ID":"195192481","MEAN_ELEMENT_THEORY":"SGP4","REV_AT_EPOCH":"5533","RA_OF_ASC_NODE":"256.6329","OBJECT_NAME":"STARLINK-1982","OBJECT_ID":"2021-009AJ","MEAN_MOTION_DOT":"0.00000172","MEAN_ANOMALY":"291.9517","BSTAR":"0.00003042300000","EPOCH":"2022-02-02T20:45:02.892384","TIME_SYSTEM":"UTC","PERIAPSIS":"546.103","SITE":"AFETR","CLASSIFICATION_TYPE":"U","REF_FRAME":"TEME","PERIOD":"95.593","ELEMENT_SET_NO":"999","APOAPSIS":"548.376","MEAN_MOTION_DDOT":"0.0000000000000","COUNTRY_CODE":"US","MEAN_MOTION":"15.06391451","ECCENTRICITY":"0.00016410","TLE_LINE2":"2 47580  53.0557 256.6329 0001641  68.1646 291.9517 15.06391451 55332","RCS_SIZE":"LARGE","ARG_OF_PERICENTER":"68.1646","LAUNCH_DATE":"2021-02-04","CENTER_NAME":"EARTH"},{"RCS_SIZE":"LARGE","TLE_LINE2":"2 47581  53.0541 236.7344 0001740  73.5275 286.5905 15.06392824 55617","MEAN_MOTION_DDOT":"0.0000000000000","COUNTRY_CODE":"US","MEAN_MOTION":"15.06392824","ECCENTRICITY":"0.00017400","CENTER_NAME":"EARTH","ARG_OF_PERICENTER":"73.5275","LAUNCH_DATE":"2021-02-04","PERIAPSIS":"546.031","SITE":"AFETR","OBJECT_NAME":"STARLINK-1984","OBJECT_ID":"2021-009AK","BSTAR":"0.00003067500000","MEAN_MOTION_DOT":"0.00000175","MEAN_ANOMALY":"286.5905","EPOCH":"2022-02-02T20:15:52.106112","TIME_SYSTEM":"UTC","REF_FRAME":"TEME","PERIOD":"95.593","ELEMENT_SET_NO":"999","APOAPSIS":"548.441","CLASSIFICATION_TYPE":"U","NORAD_CAT_ID":"47581","EPHEMERIS_TYPE":"0","REV_AT_EPOCH":"5561","RA_OF_ASC_NODE":"236.7344","GP_ID":"195193231","MEAN_ELEMENT_THEORY":"SGP4","DECAY_DATE":null,"TLE_LINE1":"1 47581U 21009AK  22033.84435308  .00000175  00000-0  30675-4 0  9990","FILE":"3290513","OBJECT_TYPE":"PAYLOAD","SEMIMAJOR_AXIS":"6925.371","INCLINATION":"53.0541"},{"MEAN_ELEMENT_THEORY":"SGP4","GP_ID":"195191480","RA_OF_ASC_NODE":"256.5004","REV_AT_EPOCH":"5534","NORAD_CAT_ID":"47582","EPHEMERIS_TYPE":"0","SEMIMAJOR_AXIS":"6925.343","INCLINATION":"53.0539","OBJECT_TYPE":"PAYLOAD","FILE":"3290513","DECAY_DATE":null,"TLE_LINE1":"1 47582U 21009AL  22033.89778668  .00000418  00000-0  46938-4 0  9994","ARG_OF_PERICENTER":"58.8167","LAUNCH_DATE":"2021-02-04","CENTER_NAME":"EARTH","MEAN_MOTION":"15.06401651","ECCENTRICITY":"0.00016280","MEAN_MOTION_DDOT":"0.0000000000000","COUNTRY_CODE":"US","RCS_SIZE":"LARGE","TLE_LINE2":"2 47582  53.0539 256.5004 0001628  58.8167 301.2981 15.06401651 55347","CLASSIFICATION_TYPE":"U","ELEMENT_SET_NO":"999","APOAPSIS":"548.336","REF_FRAME":"TEME","PERIOD":"95.592","EPOCH":"2022-02-02T21:32:48.769152","TIME_SYSTEM":"UTC","OBJECT_NAME":"STARLINK-1986","OBJECT_ID":"2021-009AL","MEAN_MOTION_DOT":"0.00000418","BSTAR":"0.00004693800000","MEAN_ANOMALY":"301.2981","SITE":"AFETR","PERIAPSIS":"546.081"},{"CENTER_NAME":"EARTH","ARG_OF_PERICENTER":"69.2058","LAUNCH_DATE":"2021-02-04","TLE_LINE2":"2 47583  53.0536 256.5887 0001760  69.2058 290.9119 15.06400440 55348","RCS_SIZE":"LARGE","MEAN_MOTION_DDOT":"0.0000000000000","COUNTRY_CODE":"US","MEAN_MOTION":"15.06400440","ECCENTRICITY":"0.00017600","REF_FRAME":"TEME","PERIOD":"95.592","ELEMENT_SET_NO":"999","APOAPSIS":"548.431","CLASSIFICATION_TYPE":"U","PERIAPSIS":"545.993","SITE":"AFETR","OBJECT_ID":"2021-009AM","OBJECT_NAME":"STARLINK-1987","BSTAR":"0.00018257000000","MEAN_MOTION_DOT":"0.00002439","MEAN_ANOMALY":"290.9119","TIME_SYSTEM":"UTC","EPOCH":"2022-02-02T21:00:58.467744","REV_AT_EPOCH":"5534","RA_OF_ASC_NODE":"256.5887","GP_ID":"195191730","MEAN_ELEMENT_THEORY":"SGP4","NORAD_CAT_ID":"47583","EPHEMERIS_TYPE":"0","OBJECT_TYPE":"PAYLOAD","SEMIMAJOR_AXIS":"6925.347","INCLINATION":"53.0536","DECAY_DATE":null,"TLE_LINE1":"1 47583U 21009AM  22033.87567671  .00002439  00000-0  18257-3 0  9990","FILE":"3290513"},{"SITE":"AFETR","PERIAPSIS":"546.410","TIME_SYSTEM":"UTC","EPOCH":"2022-02-02T21:38:08.093184","OBJECT_NAME":"STARLINK-1989","OBJECT_ID":"2021-009AP","MEAN_ANOMALY":"337.6145","MEAN_MOTION_DOT":"0.00000508","BSTAR":"0.00005297500000","ELEMENT_SET_NO":"999","APOAPSIS":"548.064","REF_FRAME":"TEME","PERIOD":"95.593","CLASSIFICATION_TYPE":"U","TLE_LINE2":"2 47585  53.0549 256.4717 0001194  22.4896 337.6145 15.06392376 55343","RCS_SIZE":"LARGE","MEAN_MOTION":"15.06392376","ECCENTRICITY":"0.00011940","MEAN_MOTION_DDOT":"0.0000000000000","COUNTRY_CODE":"US","CENTER_NAME":"EARTH","ARG_OF_PERICENTER":"22.4896","LAUNCH_DATE":"2021-02-04","FILE":"3290513","DECAY_DATE":null,"TLE_LINE1":"1 47585U 21009AP  22033.90148256  .00000508  00000-0  52975-4 0  9991","OBJECT_TYPE":"PAYLOAD","SEMIMAJOR_AXIS":"6925.372","INCLINATION":"53.0549","EPHEMERIS_TYPE":"0","NORAD_CAT_ID":"47585","RA_OF_ASC_NODE":"256.4717","REV_AT_EPOCH":"5534","MEAN_ELEMENT_THEORY":"SGP4","GP_ID":"195192981"},{"CLASSIFICATION_TYPE":"U","REF_FRAME":"TEME","PERIOD":"95.593","ELEMENT_SET_NO":"999","APOAPSIS":"548.327","OBJECT_NAME":"STARLINK-1990","OBJECT_ID":"2021-009AQ","MEAN_MOTION_DOT":"0.00001535","MEAN_ANOMALY":"297.1076","BSTAR":"0.00012197000000","EPOCH":"2022-02-02T21:14:14.869248","TIME_SYSTEM":"UTC","PERIAPSIS":"546.147","SITE":"AFETR","ARG_OF_PERICENTER":"63.0073","LAUNCH_DATE":"2021-02-04","CENTER_NAME":"EARTH","MEAN_MOTION_DDOT":"0.0000000000000","COUNTRY_CODE":"US","MEAN_MOTION":"15.06392249","ECCENTRICITY":"0.00015740","RCS_SIZE":"LARGE","TLE_LINE2":"2 47586  53.0551 276.5452 0001574  63.0073 297.1076 15.06392249 55067","INCLINATION":"53.0551","SEMIMAJOR_AXIS":"6925.372","OBJECT_TYPE":"PAYLOAD","DECAY_DATE":null,"TLE_LINE1":"1 47586U 21009AQ  22033.88489432  .00001535  00000-0  12197-3 0  9995","FILE":"3290513","GP_ID":"195192732","MEAN_ELEMENT_THEORY":"SGP4","REV_AT_EPOCH":"5506","RA_OF_ASC_NODE":"276.5452","NORAD_CAT_ID":"47586","EPHEMERIS_TYPE":"0"},{"PERIOD":"95.592","REF_FRAME":"TEME","APOAPSIS":"548.660","ELEMENT_SET_NO":"999","CLASSIFICATION_TYPE":"U","PERIAPSIS":"545.794","SITE":"AFETR","MEAN_MOTION_DOT":"-0.00001469","BSTAR":"-0.00007969800000","MEAN_ANOMALY":"281.6567","OBJECT_NAME":"STARLINK-1991","OBJECT_ID":"2021-009AR","TIME_SYSTEM":"UTC","EPOCH":"2022-02-02T21:07:37.958016","CENTER_NAME":"EARTH","LAUNCH_DATE":"2021-02-04","ARG_OF_PERICENTER":"78.4654","TLE_LINE2":"2 47587  53.0552 246.5770 0002069  78.4654 281.6567 15.06395639 55489","RCS_SIZE":"LARGE","COUNTRY_CODE":"US","MEAN_MOTION_DDOT":"0.0000000000000","ECCENTRICITY":"0.00020690","MEAN_MOTION":"15.06395639","OBJECT_TYPE":"PAYLOAD","INCLINATION":"53.0552","SEMIMAJOR_AXIS":"6925.362","TLE_LINE1":"1 47587U 21009AR  22033.88030044 -.00001469  00000-0 -79698-4 0  9995","DECAY_DATE":null,"FILE":"3290513","REV_AT_EPOCH":"5548","RA_OF_ASC_NODE":"246.5770","GP_ID":"195191980","MEAN_ELEMENT_THEORY":"SGP4","NORAD_CAT_ID":"47587","EPHEMERIS_TYPE":"0"}];
